[{"OBJECT_NAME":"STARLINK-1646","OBJECT_ID":"2020-062AC","EPOCH":"2026-03-09T22:32:49.520256","MEAN_MOTION":15.55410621,"ECCENTRICITY":0.00055037,"INCLINATION":53.0472,"RA_OF_ASC_NODE":334.0562,"ARG_OF_PERICENTER":134.745,"MEAN_ANOMALY":225.4009,"EPHEMERIS_TYPE":0,"CLASSIFICATION_TYPE":"U","NORAD_CAT_ID":46351,"ELEMENT_SET_NO":999,"REV_AT_EPOCH":30494,"BSTAR":0.0018630544,"MEAN_MOTION_DOT":0.00130817,"MEAN_MOTION_DDOT":0},{"OBJECT_NAME":"JILIN-1 GAOFEN 3G","OBJECT_ID":"2020-065F","EPOCH":"2026-03-09T21:50:59.195040","MEAN_MOTION":15.57918235,"ECCENTRICITY":0.00133019,"INCLINATION":97.2459,"RA_OF_ASC_NODE":123.1669,"ARG_OF_PERICENTER":66.7288,"MEAN_ANOMALY":293.5367,"EPHEMERIS_TYPE":0,"CLASSIFICATION_TYPE":"U","NORAD_CAT_ID":46459,"ELEMENT_SET_NO":999,"REV_AT_EPOCH":30442,"BSTAR":0.00076250561,"MEAN_MOTION_DOT":0.00057372,"MEAN_MOTION_DDOT":0}]
